IRIDIUM 147             
1 43480U 18047E   26085.78132393 -.00000075  00000+0 -33805-4 0  9992
2 43480  86.3944 122.8026 0002243  95.2684 264.8768 14.34216688410673
IRIDIUM 110             
1 43481U 18047F   26085.08997809  .00000014  00000+0 -20579-5 0  9994
2 43481  86.3949 123.1815 0002012  84.1758 275.9667 14.34216277410565
IRIDIUM 162             
1 43482U 18047G   26085.38166666  .00000326  00000+0  90868-4 0  9999
2 43482  86.4468 122.9980 0002176  96.0767 264.0682 14.43285676413182
IRIDIUM 160             
1 43569U 18061A   26085.94280562 -.00000003  00000+0 -80892-5 0  9996
2 43569  86.3909  91.1937 0002148  87.3253 272.8189 14.34217408401586
IRIDIUM 166             
1 43570U 18061B   26085.96817609 -.00000031  00000+0 -18199-4 0  9999
2 43570  86.3907  91.1345 0002236  92.8950 267.2501 14.34217356401614
IRIDIUM 158             
1 43571U 18061C   26085.93646328 -.00000008  00000+0 -97602-5 0  9996
2 43571  86.3907  91.1578 0001991  91.7541 268.3883 14.34217417401572
IRIDIUM 165             
1 43572U 18061D   26085.96183299  .00000102  00000+0  29432-4 0  9991
2 43572  86.3905  91.1919 0002355  92.9523 267.1943 14.34218426401607
IRIDIUM 155             
1 43573U 18061E   26085.92377792  .00000005  00000+0 -51295-5 0  9997
2 43573  86.3904  91.0809 0002055  94.4835 265.6596 14.34217543401565
IRIDIUM 154             
1 43574U 18061F   26085.97451951  .00000002  00000+0 -62540-5 0  9995
2 43574  86.3908  91.1893 0002309  93.1165 267.0295 14.34217592401621
IRIDIUM 163             
1 43575U 18061G   26085.95549010 -.00000021  00000+0 -14733-4 0  9990
2 43575  86.3906  91.1151 0002049  90.4644 269.6786 14.34217172401593
IRIDIUM 156             
1 43576U 18061H   26085.93012069  .00000049  00000+0  10387-4 0  9997
2 43576  86.3904  91.1329 0002206  95.4206 264.7242 14.34217943401581
IRIDIUM 164             
1 43577U 18061J   26085.98086153  .00000041  00000+0  75208-5 0  9994
2 43577  86.3906  91.1507 0002442  89.8264 270.3212 14.34217582401630
IRIDIUM 159             
1 43578U 18061K   26085.94914866 -.00000012  00000+0 -11317-4 0  9992
2 43578  86.3904  91.1024 0002128  86.7841 273.3598 14.34217316401591
