[
    {
      "OBJECT_NAME": "IRIDIUM 147",
      "OBJECT_ID": "2018-047E",
      "EPOCH": "2026-03-26T18:45:06.387552",
      "MEAN_MOTION": 14.34216688,
      "ECCENTRICITY": 0.00022434,
      "INCLINATION": 86.3944,
      "RA_OF_ASC_NODE": 122.8026,
      "ARG_OF_PERICENTER": 95.2684,
      "MEAN_ANOMALY": 264.8768,
      "EPHEMERIS_TYPE": 0,
      "CLASSIFICATION_TYPE": "U",
      "NORAD_CAT_ID": 43480,
      "ELEMENT_SET_NO": 999,
      "REV_AT_EPOCH": 41067,
      "BSTAR": -0.000033804882,
      "MEAN_MOTION_DOT": -7.5e-7,
      "MEAN_MOTION_DDOT": 0
    },
    {
      "OBJECT_NAME": "IRIDIUM 110",
      "OBJECT_ID": "2018-047F",
      "EPOCH": "2026-03-26T02:09:34.106976",
      "MEAN_MOTION": 14.34216277,
      "ECCENTRICITY": 0.0002012,
      "INCLINATION": 86.3949,
      "RA_OF_ASC_NODE": 123.1815,
      "ARG_OF_PERICENTER": 84.1758,
      "MEAN_ANOMALY": 275.9667,
      "EPHEMERIS_TYPE": 0,
      "CLASSIFICATION_TYPE": "U",
      "NORAD_CAT_ID": 43481,
      "ELEMENT_SET_NO": 999,
      "REV_AT_EPOCH": 41056,
      "BSTAR": -0.000002057942,
      "MEAN_MOTION_DOT": 1.4e-7,
      "MEAN_MOTION_DDOT": 0
    },
    {
      "OBJECT_NAME": "IRIDIUM 162",
      "OBJECT_ID": "2018-047G",
      "EPOCH": "2026-03-26T09:09:35.999424",
      "MEAN_MOTION": 14.43285676,
      "ECCENTRICITY": 0.00021768,
      "INCLINATION": 86.4468,
      "RA_OF_ASC_NODE": 122.998,
      "ARG_OF_PERICENTER": 96.0767,
      "MEAN_ANOMALY": 264.0682,
      "EPHEMERIS_TYPE": 0,
      "CLASSIFICATION_TYPE": "U",
      "NORAD_CAT_ID": 43482,
      "ELEMENT_SET_NO": 999,
      "REV_AT_EPOCH": 41318,
      "BSTAR": 0.000090867979,
      "MEAN_MOTION_DOT": 0.00000326,
      "MEAN_MOTION_DDOT": 0
    },
    {
      "OBJECT_NAME": "IRIDIUM 160",
      "OBJECT_ID": "2018-061A",
      "EPOCH": "2026-03-26T22:37:38.405568",
      "MEAN_MOTION": 14.34217408,
      "ECCENTRICITY": 0.00021483,
      "INCLINATION": 86.3909,
      "RA_OF_ASC_NODE": 91.1937,
      "ARG_OF_PERICENTER": 87.3253,
      "MEAN_ANOMALY": 272.8189,
      "EPHEMERIS_TYPE": 0,
      "CLASSIFICATION_TYPE": "U",
      "NORAD_CAT_ID": 43569,
      "ELEMENT_SET_NO": 999,
      "REV_AT_EPOCH": 40158,
      "BSTAR": -0.000008089203,
      "MEAN_MOTION_DOT": -3e-8,
      "MEAN_MOTION_DDOT": 0
    },
    {
      "OBJECT_NAME": "IRIDIUM 166",
      "OBJECT_ID": "2018-061B",
      "EPOCH": "2026-03-26T23:14:10.414176",
      "MEAN_MOTION": 14.34217356,
      "ECCENTRICITY": 0.00022362,
      "INCLINATION": 86.3907,
      "RA_OF_ASC_NODE": 91.1345,
      "ARG_OF_PERICENTER": 92.895,
      "MEAN_ANOMALY": 267.2501,
      "EPHEMERIS_TYPE": 0,
      "CLASSIFICATION_TYPE": "U",
      "NORAD_CAT_ID": 43570,
      "ELEMENT_SET_NO": 999,
      "REV_AT_EPOCH": 40161,
      "BSTAR": -0.000018198809,
      "MEAN_MOTION_DOT": -3.1e-7,
      "MEAN_MOTION_DDOT": 0
    },
    {
      "OBJECT_NAME": "IRIDIUM 158",
      "OBJECT_ID": "2018-061C",
      "EPOCH": "2026-03-26T22:28:30.427392",
      "MEAN_MOTION": 14.34217417,
      "ECCENTRICITY": 0.00019912,
      "INCLINATION": 86.3907,
      "RA_OF_ASC_NODE": 91.1578,
      "ARG_OF_PERICENTER": 91.7541,
      "MEAN_ANOMALY": 268.3883,
      "EPHEMERIS_TYPE": 0,
      "CLASSIFICATION_TYPE": "U",
      "NORAD_CAT_ID": 43571,
      "ELEMENT_SET_NO": 999,
      "REV_AT_EPOCH": 40157,
      "BSTAR": -0.000009760176,
      "MEAN_MOTION_DOT": -8e-8,
      "MEAN_MOTION_DDOT": 0
    },
    {
      "OBJECT_NAME": "IRIDIUM 165",
      "OBJECT_ID": "2018-061D",
      "EPOCH": "2026-03-26T23:05:02.370336",
      "MEAN_MOTION": 14.34218426,
      "ECCENTRICITY": 0.00023554,
      "INCLINATION": 86.3905,
      "RA_OF_ASC_NODE": 91.1919,
      "ARG_OF_PERICENTER": 92.9523,
      "MEAN_ANOMALY": 267.1943,
      "EPHEMERIS_TYPE": 0,
      "CLASSIFICATION_TYPE": "U",
      "NORAD_CAT_ID": 43572,
      "ELEMENT_SET_NO": 999,
      "REV_AT_EPOCH": 40160,
      "BSTAR": 0.000029431547,
      "MEAN_MOTION_DOT": 0.00000102,
      "MEAN_MOTION_DDOT": 0
    },
    {
      "OBJECT_NAME": "IRIDIUM 155",
      "OBJECT_ID": "2018-061E",
      "EPOCH": "2026-03-26T22:10:14.412288",
      "MEAN_MOTION": 14.34217543,
      "ECCENTRICITY": 0.00020551,
      "INCLINATION": 86.3904,
      "RA_OF_ASC_NODE": 91.0809,
      "ARG_OF_PERICENTER": 94.4835,
      "MEAN_ANOMALY": 265.6596,
      "EPHEMERIS_TYPE": 0,
      "CLASSIFICATION_TYPE": "U",
      "NORAD_CAT_ID": 43573,
      "ELEMENT_SET_NO": 999,
      "REV_AT_EPOCH": 40156,
      "BSTAR": -0.000005129514,
      "MEAN_MOTION_DOT": 5e-8,
      "MEAN_MOTION_DDOT": 0
    },
    {
      "OBJECT_NAME": "IRIDIUM 154",
      "OBJECT_ID": "2018-061F",
      "EPOCH": "2026-03-26T23:23:18.485664",
      "MEAN_MOTION": 14.34217592,
      "ECCENTRICITY": 0.00023096,
      "INCLINATION": 86.3908,
      "RA_OF_ASC_NODE": 91.1893,
      "ARG_OF_PERICENTER": 93.1165,
      "MEAN_ANOMALY": 267.0295,
      "EPHEMERIS_TYPE": 0,
      "CLASSIFICATION_TYPE": "U",
      "NORAD_CAT_ID": 43574,
      "ELEMENT_SET_NO": 999,
      "REV_AT_EPOCH": 40162,
      "BSTAR": -0.000006254007,
      "MEAN_MOTION_DOT": 2e-8,
      "MEAN_MOTION_DDOT": 0
    },
    {
      "OBJECT_NAME": "IRIDIUM 163",
      "OBJECT_ID": "2018-061G",
      "EPOCH": "2026-03-26T22:55:54.344640",
      "MEAN_MOTION": 14.34217172,
      "ECCENTRICITY": 0.00020498,
      "INCLINATION": 86.3906,
      "RA_OF_ASC_NODE": 91.1151,
      "ARG_OF_PERICENTER": 90.4644,
      "MEAN_ANOMALY": 269.6786,
      "EPHEMERIS_TYPE": 0,
      "CLASSIFICATION_TYPE": "U",
      "NORAD_CAT_ID": 43575,
      "ELEMENT_SET_NO": 999,
      "REV_AT_EPOCH": 40159,
      "BSTAR": -0.000014732764,
      "MEAN_MOTION_DOT": -2.1e-7,
      "MEAN_MOTION_DDOT": 0
    },
    {
      "OBJECT_NAME": "IRIDIUM 156",
      "OBJECT_ID": "2018-061H",
      "EPOCH": "2026-03-26T22:19:22.427616",
      "MEAN_MOTION": 14.34217943,
      "ECCENTRICITY": 0.00022067,
      "INCLINATION": 86.3904,
      "RA_OF_ASC_NODE": 91.1329,
      "ARG_OF_PERICENTER": 95.4206,
      "MEAN_ANOMALY": 264.7242,
      "EPHEMERIS_TYPE": 0,
      "CLASSIFICATION_TYPE": "U",
      "NORAD_CAT_ID": 43576,
      "ELEMENT_SET_NO": 999,
      "REV_AT_EPOCH": 40158,
      "BSTAR": 0.000010386516,
      "MEAN_MOTION_DOT": 4.9e-7,
      "MEAN_MOTION_DDOT": 0
    },
    {
      "OBJECT_NAME": "IRIDIUM 164",
      "OBJECT_ID": "2018-061J",
      "EPOCH": "2026-03-26T23:32:26.436192",
      "MEAN_MOTION": 14.34217582,
      "ECCENTRICITY": 0.0002442,
      "INCLINATION": 86.3906,
      "RA_OF_ASC_NODE": 91.1507,
      "ARG_OF_PERICENTER": 89.8264,
      "MEAN_ANOMALY": 270.3212,
      "EPHEMERIS_TYPE": 0,
      "CLASSIFICATION_TYPE": "U",
      "NORAD_CAT_ID": 43577,
      "ELEMENT_SET_NO": 999,
      "REV_AT_EPOCH": 40163,
      "BSTAR": 0.000007520775,
      "MEAN_MOTION_DOT": 4.1e-7,
      "MEAN_MOTION_DDOT": 0
    },
    {
      "OBJECT_NAME": "IRIDIUM 159",
      "OBJECT_ID": "2018-061K",
      "EPOCH": "2026-03-26T22:46:46.444224",
      "MEAN_MOTION": 14.34217316,
      "ECCENTRICITY": 0.0002128,
      "INCLINATION": 86.3904,
      "RA_OF_ASC_NODE": 91.1024,
      "ARG_OF_PERICENTER": 86.7841,
      "MEAN_ANOMALY": 273.3598,
      "EPHEMERIS_TYPE": 0,
      "CLASSIFICATION_TYPE": "U",
      "NORAD_CAT_ID": 43578,
      "ELEMENT_SET_NO": 999,
      "REV_AT_EPOCH": 40159,
      "BSTAR": -0.0000113166,
      "MEAN_MOTION_DOT": -1.2e-7,
      "MEAN_MOTION_DDOT": 0
    }
  ]